SL-14 R/B               
1 19574U 88093B   25011.63363872  .00000722  00000+0  81450-4 0  9993
2 19574  82.5305  78.0465 0020735 358.6240 115.2470 14.85042345938383
SL-16 R/B               
1 19650U 88102B   25011.28412470 -.00000130  00000+0 -41582-4 0  9996
2 19650  71.0009 320.2193 0016631 290.4744  69.4593 14.16064737867092
INTERCOSMOS 24          
1 20261U 89080A   25011.55757891  .00000827  00000+0  24145-3 0  9997
2 20261  82.6057  18.8493 1191619 191.7019 165.3969 12.58670758613671
SL-14 R/B               
1 20262U 89080C   25011.61435977  .00000344  00000+0  94461-4 0  9996
2 20262  82.5922  84.1978 1232575  69.3529 303.5194 12.50128355607402
DELTA 1 R/B             
1 20323U 89089B   25011.35386323  .00000907  00000+0  23532-3 0  9999
2 20323  97.1216 279.8794 0070235  17.2424 343.1136 14.50133137834511
ARIANE 40 R/B           
1 20443U 90005H   25011.59820944  .00000500  00000+0  17437-3 0  9996
2 20443  98.3690  78.4763 0010780  39.5189 320.6783 14.39426818832071
DELTA 2 R/B(1)          
1 20453U 90008B   25011.38437236  .00029814  00000+0  84878-3 0  9997
2 20453  35.6165 348.0204 0161449  45.4636 315.9151 15.23151444861129
COSMOS 2058             
1 20465U 90010A   25011.32365207  .00006737  00000+0  44800-3 0  9995
2 20465  82.4872 101.7584 0012425 318.6733  41.3553 15.06959660878530
SL-14 R/B               
1 20466U 90010B   25011.32983025  .00000877  00000+0  10482-3 0  9998
2 20466  82.5040 303.8848 0018372 250.5550 109.3679 14.82995147865875
SL-14 R/B               
1 20511U 90018B   25011.61871287  .00000659  00000+0  80821-4 0  9998
2 20511  82.5208 257.4413 0017562  43.9786 316.2822 14.81580557860079
HST                     
1 20580U 90037B   25011.33882588  .00009396  00000+0  38704-3 0  9999
2 20580  28.4699  25.9364 0002742 156.3522 203.7198 15.22354246708732
SL-16 R/B               
1 20625U 90046B   25011.58475664  .00000163  00000+0  10890-3 0  9998
2 20625  70.9991 104.3487 0015985 231.3662 128.6030 14.14922857788680
COSMOS 2084             
1 20663U 90055A   25011.38867827  .00004370  00000+0  32278-3 0  9992
2 20663  62.7916 332.2498 0084892 139.2795 221.4692 15.01920737872804
SL-6 R/B(2)             
1 20666U 90055D   25011.15827626  .00003192  00000+0  25908-3 0  9996
2 20666  62.7834 247.7693 0052893 165.8703 194.3890 15.00694265874716
SL-8 R/B                
1 20775U 90078B   25011.13741926  .00028333  00000+0  10189-2 0  9996
2 20775  82.9111 266.1457 0429070 337.7654  20.5419 14.71074842746784
SL-8 R/B                
1 21088U 91006B   25011.37830417  .00000133  00000+0  11853-3 0  9994
2 21088  82.9436 124.2162 0023539 136.2064 284.1728 13.77416330705936
OKEAN-3                 
1 21397U 91039A   25011.55089707  .00003794  00000+0  29360-3 0  9999
2 21397  82.5169  24.7461 0013902 333.4296  26.6214 15.01141271801625
COSMOS 2151             
1 21422U 91042A   25011.41813354  .00003366  00000+0  28398-3 0  9995
2 21422  82.4990 130.2383 0013407  49.5336 310.7053 14.97800929799935
SL-14 R/B               
1 21423U 91042B   25011.58614737  .00000617  00000+0  75965-4 0  9997
2 21423  82.4923 255.8645 0016871 182.9720 177.1396 14.81296629790579
ERS-1                   
1 21574U 91050A   25011.56566982  .00000528  00000+0  18518-3 0  9990
2 21574  98.7896  14.1647 0032567  16.0099 344.2110 14.38980235755015
ARIANE 40 R/B           
1 21610U 91050F   25011.57764822  .00000581  00000+0  18846-3 0  9998
2 21610  98.2637  73.2758 0001954 272.8955  87.2012 14.42399323758130
INTERCOSMOS 25          
1 21819U 91086A   25011.61859973  .00001065  00000+0  21202-3 0  9993
2 21819  82.6032 204.8626 1494934 305.7034  41.3713 12.10014363445595
SL-8 R/B                
1 21876U 92008B   25011.58772406  .00000052  00000+0  37762-4 0  9996
2 21876  82.9247 221.6529 0033689 232.5793 180.6477 13.75896787651371
SL-8 R/B                
1 21938U 92020B   25011.35870566  .00000110  00000+0  97835-4 0  9992
2 21938  82.9309 107.4348 0029772  39.0889  28.6459 13.75484370643073
USA 81                  
1 21949U 92023A   25011.54783290  .00000326  00000+0  11381-3 0  9995
2 21949  85.0071  14.9497 0001404  72.2541 287.8805 14.32135029 34366
COSMOS 2219             
1 22219U 92076A   25011.62363687  .00000137  00000+0  96893-4 0  9999
2 22219  71.0601 180.3092 0016184 129.5592 230.6963 14.13983722658715
SL-16 R/B               
1 22220U 92076B   25011.43639852  .00000328  00000+0  18778-3 0  9997
2 22220  71.0010 357.7803 0012280   8.0516 104.8719 14.16760019662026
COSMOS 2221             
1 22236U 92080A   25011.32834760  .00003908  00000+0  36528-3 0  9992
2 22236  82.5066 322.8441 0015155 162.0515 198.1245 14.93817400717681
SL-16 R/B               
1 22285U 92093B   25011.61391921  .00000391  00000+0  22478-3 0  9991
2 22285  71.0204 170.2539 0006136 242.9316 117.1181 14.15352390653439
COSMOS 2228             
1 22286U 92094A   25011.32166803  .00003376  00000+0  30957-3 0  9997
2 22286  82.5194 280.8963 0017292 286.3512  73.5807 14.94515391712917
SL-16 R/B               
1 22566U 93016B   25011.47184131  .00000166  00000+0  10979-3 0  9999
2 22566  71.0083  21.9080 0012583 250.8096 109.1665 14.15222283642438
COSMOS 2242             
1 22626U 93024A   25011.41181987  .00003626  00000+0  33690-3 0  9994
2 22626  82.5212 309.8047 0015170 288.1084  71.8484 14.94044319717282
SL-16 R/B               
1 22803U 93059B   25011.59941325 -.00000084  00000+0 -17846-4 0  9991
2 22803  70.9889 181.1664 0015592 139.5777 220.6509 14.17127842619733
ARIANE 40 R/B           
1 22830U 93061H   25011.17541575  .00000432  00000+0  17555-3 0  9992
2 22830  98.5481  82.1400 0011803  94.4169 265.8364 14.32494882633600
COSMOS 2278             
1 23087U 94023A   25011.35774426  .00000390  00000+0  22881-3 0  9990
2 23087  71.0553 338.6062 0010726 305.1482  54.8635 14.14238990585099
SL-16 R/B               
1 23088U 94023B   25011.60285937 -.00000021  00000+0  13775-4 0  9998
2 23088  70.9974 237.2538 0005121 237.8259 122.2367 14.14929503586385
SL-16 R/B               
1 23343U 94074B   25011.60029618  .00000789  00000+0  11419-3 0  9992
2 23343  97.7614  53.4707 0007370 145.0191 331.5006 14.78727061624851
SL-16 R/B               
1 23405U 94077B   25011.60757001 -.00000099  00000+0 -26213-4 0  9993
2 23405  70.9817 160.4136 0000293  61.7420 298.3732 14.15476532556506
ARIANE 40+ R/B          
1 23561U 95021B   25011.21869551  .00000575  00000+0  19924-3 0  9994
2 23561  98.5043  82.2262 0006182 335.1788  57.1576 14.39319220558465
SL-16 R/B               
1 23705U 95058B   25011.38176974  .00000292  00000+0  17407-3 0  9992
2 23705  71.0226 346.8319 0011116  34.6620 325.5225 14.15417553508094
SL-16 R/B               
1 24298U 96051B   25011.36235976 -.00000204  00000+0 -84044-4 0  9997
2 24298  70.7828 348.8432 0014945  29.5001 330.6959 14.12445886462012
ORBVIEW 2 (SEASTAR)     
1 24883U 97037A   25011.45067759  .00000577  00000+0  21873-3 0  9995
2 24883  98.8007 160.9847 0001704 200.3544 159.7572 14.35024550448162
SL-16 R/B               
1 25400U 98043G   25011.46873299  .00000143  00000+0  78902-4 0  9999
2 25400  98.7704 318.2887 0010245 153.9719 206.1978 14.25902627378810
SL-16 R/B               
1 25407U 98045B   25011.38700791  .00000264  00000+0  15771-3 0  9993
2 25407  71.0124 349.6083 0009494 300.1057  59.9124 14.16099757367319
ISS (ZARYA)             
1 25544U 98067A   25011.69944444  .00015152  00000+0  26345-3 0  9999
2 25544  51.6403   2.1971 0006474  69.9605 267.6871 15.50993677490885
CZ-4B R/B               
1 25732U 99025C   25011.63677646  .00000130  00000+0  83756-4 0  9994
2 25732  98.7245  59.5242 0038097 117.1706 356.3826 14.18122447328340
OKEAN-O                 
1 25860U 99039A   25011.60681317  .00001102  00000+0  15503-3 0  9992
2 25860  98.0081  69.4159 0000759  92.8827 267.2471 14.79349412371969
SL-16 R/B               
1 25861U 99039B   25011.59888931  .00001011  00000+0  13769-3 0  9993
2 25861  98.0610  64.8896 0014933 180.5565 179.5633 14.80890760374370
DELTA 2 R/B             
1 25876U 99041E   25011.55810472  .00003935  00000+0  67766-3 0  9996
2 25876  51.7599 184.9806 0510923 184.1388 175.5233 14.09798930303434
HELIOS 1B               
1 25977U 99064A   25011.58330921  .00001566  00000+0  18721-3 0  9997
2 25977  98.2163 256.0124 0001855  45.1527 314.9838 14.85690018622541
TERRA                   
1 25994U 99068A   25011.63680674  .00000774  00000+0  16913-3 0  9990
2 25994  98.0223  74.7741 0003527  79.4254  38.0898 14.60388680333462
SL-16 R/B               
1 26070U 00006B   25011.15205199  .00000152  00000+0  10139-3 0  9996
2 26070  71.0019 266.2279 0014334 107.4932 252.7759 14.15736404288752
TITAN 4B R/B            
1 26474U 00047B   25011.60914850  .00005998  00000+0  41813-3 0  9996
2 26474  67.9908 143.7157 0043020 160.7349 199.5437 15.05332274329296
ENVISAT                 
1 27386U 02009A   25011.46830640  .00000271  00000+0  10199-3 0  9999
2 27386  98.3132 331.6643 0001135  89.5030  20.1696 14.38813237198456
IDEFIX & ARIANE 42P R/B 
1 27422U 02021B   25011.40130050  .00000602  00000+0  24705-3 0  9992
2 27422  98.5485 311.1679 0011913 356.8308   3.2797 14.30582927183634
AQUA                    
1 27424U 02022A   25011.58582760  .00001724  00000+0  36396-3 0  9998
2 27424  98.3582 328.2191 0001581 114.6960 332.2413 14.60668951207085
CZ-4B R/B               
1 27432U 02024C   25011.57919616  .00000093  00000+0  70913-4 0  9994
2 27432  98.9484  60.6232 0050900 139.9293 344.3502 14.14435070169568
MIDORI II (ADEOS-II)    
1 27597U 02056A   25011.47487008  .00000649  00000+0  27541-3 0  9990
2 27597  98.7192 323.6336 0001724 115.2583 244.8778 14.28814877149995
H-2A R/B                
1 27601U 02056E   25011.51292400  .00000690  00000+0  25849-3 0  9996
2 27601  98.2585 344.6097 0070406 341.1936 126.6154 14.33287379153621
